NORAD_CAT_ID,OBJECT_NAME,OBJECT_TYPE,EPOCH,MEAN_MOTION,ECCENTRICITY,INCLINATION,RA_OF_ASC_NODE,ARG_OF_PERICENTER,MEAN_ANOMALY,BSTAR,MEAN_MOTION_DOT,MEAN_MOTION_DDOT,TLE_LINE0,TLE_LINE1,TLE_LINE2,SEMIMAJOR_AXIS,PERIOD,APOGEE,PERIGEE,DECAYED
53260.0,STARLINK-4136,PAYLOAD,2022-12-03 18:14:23,15.08841462,0.0001450999999999,53.2154,144.8966,68.5759,291.5388,0.00015221,2.135e-05,0.0,0 STARLINK-4136,1 53260U 22086U   22337.75999876  .00002135  00000-0  15221-3 0  9996,2 53260  53.2154 144.8966 0001451  68.5759 291.5388 15.08841462 21128,6917.876,95.437,540.745,538.737,0.0
53260.0,STARLINK-4136,PAYLOAD,2022-12-04 10:08:15,15.08838944,0.0001509,53.2155,141.9233,70.6698,289.4458,7.5888e-05,9.2e-06,0.0,0 STARLINK-4136,1 53260U 22086U   22338.42240284  .00000920  00000-0  75888-4 0  9999,2 53260  53.2155 141.9233 0001509  70.6698 289.4458 15.08838944 21040,6917.884,95.438,540.793,538.705,0.0
53260.0,STARLINK-4136,PAYLOAD,2022-12-04 11:43:39,15.08834472,0.0001520999999999,53.2158,141.6256,70.5805,289.5352,3.1124e-05,2.07e-06,0.0,0 STARLINK-4136,1 53260U 22086U   22338.48864673  .00000207  00000-0  31124-4 0  9992,2 53260  53.2158 141.6256 0001521  70.5805 289.5352 15.08834472 21235,6917.897,95.438,540.814,538.71,0.0
53260.0,STARLINK-4136,PAYLOAD,2022-12-04 18:05:11,15.08835433,0.0001518,53.2159,140.4361,70.1686,289.9469,3.0966e-05,2.05e-06,0.0,0 STARLINK-4136,1 53260U 22086U   22338.75360653  .00000205  00000-0  30966-4 0  9992,2 53260  53.2159 140.4361 0001518  70.1686 289.9469 15.08835433 21274,6917.894,95.438,540.809,538.7090000000002,0.0
53260.0,STARLINK-4136,PAYLOAD,2022-12-05 11:34:25,15.08843921,0.0001416,53.216,137.1649,66.8776,293.2365,3.2929e-05,2.36e-06,0.0,0 STARLINK-4136,1 53260U 22086U   22339.48224112  .00000236  00000-0  32929-4 0  9997,2 53260  53.2160 137.1649 0001416  66.8776 293.2365 15.08843921 21204,6917.868,95.437,540.7130000000002,538.754,0.0
53260.0,STARLINK-4136,PAYLOAD,2022-12-05 17:55:57,15.08847863,0.0001436,53.216,135.9754,67.6995,292.415,6.4033e-05,7.31e-06,0.0,0 STARLINK-4136,1 53260U 22086U   22339.74719701  .00000731  00000-0  64033-4 0  9990,2 53260  53.2160 135.9754 0001436  67.6995 292.4150 15.08847863 21427,6917.856,95.437,540.715,538.7280000000002,0.0
53260.0,STARLINK-4136,PAYLOAD,2022-12-06 09:49:50,15.08837087,0.0001606,53.2164,133.0016,71.5315,288.5852,1.0923e-05,-1.14e-06,0.0,0 STARLINK-4136,1 53260U 22086U   22340.40960701 -.00000114  00000-0  10923-4 0  9998,2 53260  53.2164 133.0016 0001606  71.5315 288.5852 15.08837087 21343,6917.889,95.438,540.865,538.643,0.0
53260.0,STARLINK-4136,PAYLOAD,2022-12-06 14:35:59,15.08834587,0.0001450999999999,53.2165,132.11,68.9889,291.1258,4.5917e-05,4.43e-06,0.0,0 STARLINK-4136,1 53260U 22086U   22340.60832753  .00000443  00000-0  45917-4 0  9990,2 53260  53.2165 132.1100 0001451  68.9889 291.1258 15.08834587 21557,6917.897,95.438,540.766,538.758,0.0
53260.0,STARLINK-4136,PAYLOAD,2022-12-07 11:16:00,15.08840055,0.0001333,53.2162,128.2436,60.3016,299.8109,7.8427e-05,9.6e-06,0.0,0 STARLINK-4136,1 53260U 22086U   22341.46944561  .00000960  00000-0  78427-4 0  9992,2 53260  53.2162 128.2436 0001333  60.3016 299.8109 15.08840055 21501,6917.88,95.438,540.6669999999998,538.823,0.0
53260.0,STARLINK-4136,PAYLOAD,2022-12-07 16:02:09,15.08838051,0.0001608,53.217,127.3531,37.7111,322.3993,4.9243e-05,4.96e-06,0.0,0 STARLINK-4136,1 53260U 22086U   22341.66816742  .00000496  00000-0  49243-4 0  9991,2 53260  53.2170 127.3531 0001608  37.7111 322.3993 15.08838051 21714,6917.886,95.438,540.864,538.639,0.0
53260.0,STARLINK-4136,PAYLOAD,2022-12-08 09:31:23,15.08848309,0.0001178,53.2158,124.0829,60.312,299.7989,0.00010545,1.391e-05,0.0,0 STARLINK-4136,1 53260U 22086U   22342.39680107  .00001391  00000-0  10545-3 0  9993,2 53260  53.2158 124.0829 0001178  60.3120 299.7989 15.08848309 21829,6917.855,95.437,540.535,538.905,0.0
53260.0,STARLINK-4136,PAYLOAD,2022-12-08 15:52:56,15.08847237,0.0001496999999999,53.2165,122.8957,53.0577,307.0552,0.00011596,1.558e-05,0.0,0 STARLINK-4136,1 53260U 22086U   22342.66176149  .00001558  00000-0  11596-3 0  9991,2 53260  53.2165 122.8957 0001497  53.0577 307.0552 15.08847237 21686,6917.858,95.437,540.759,538.688,0.0
53260.0,STARLINK-4136,PAYLOAD,2022-12-09 09:22:08,15.088993599999998,0.0001774999999999,53.2158,119.6249,352.0025,8.0938,0.00052749,8.13e-05,0.0,0 STARLINK-4136,1 53260U 22086U   22343.39037891  .00008130  00000-0  52749-3 0  9990,2 53260  53.2158 119.6249 0001775 352.0025   8.0938 15.08899360 21977,6917.699000000001,95.434,540.7919999999998,538.336,0.0
53260.0,STARLINK-4136,PAYLOAD,2022-12-09 18:54:27,15.0890543,0.0001119,53.2157,117.8402,351.147,8.9502,0.00074972,0.00011685,0.0,0 STARLINK-4136,1 53260U 22086U   22343.78781346  .00011685  00000-0  74972-3 0  9995,2 53260  53.2157 117.8402 0001119 351.1470   8.9502 15.08905430 21852,6917.68,95.433,540.319,538.771,0.0
53260.0,STARLINK-4136,PAYLOAD,2022-12-09 23:40:38,15.08858385,0.0001164,53.2152,116.9487,35.6827,324.4243,5.7166e-06,-1.97e-06,0.0,0 STARLINK-4136,1 53260U 22086U   22343.98655920 -.00000197  00000-0  57166-5 0  9990,2 53260  53.2152 116.9487 0001164  35.6827 324.4243 15.08858385 21887,6917.824000000001,95.436,540.494,538.884,0.0
53260.0,STARLINK-4136,PAYLOAD,2022-12-10 13:59:07,15.08850335,0.0001638,53.2175,114.2711,54.8397,305.2748,0.00010186,1.334e-05,0.0,0 STARLINK-4136,1 53260U 22086U   22344.58272232  .00001334  00000-0  10186-3 0  9990,2 53260  53.2175 114.2711 0001638  54.8397 305.2748 15.08850335 22159,6917.849,95.437,540.847,538.581,0.0
53260.0,STARLINK-4136,PAYLOAD,2022-12-10 15:34:30,15.0884297,0.0001636,53.2168,113.973,43.8347,316.2775,7.2012e-05,8.58e-06,0.0,0 STARLINK-4136,1 53260U 22086U   22344.64896757  .00000858  00000-0  72012-4 0  9998,2 53260  53.2168 113.9730 0001636  43.8347 316.2775 15.08842970 21987,6917.871,95.437,540.868,538.605,0.0
53260.0,STARLINK-4136,PAYLOAD,2022-12-11 13:49:56,15.08778224,0.0001078,53.2159,109.8091,308.4712,51.6184,0.00095152,0.00014862,0.0,0 STARLINK-4136,1 53260U 22086U   22345.57634970  .00014862  00000-0  95152-3 0  9997,2 53260  53.2159 109.8091 0001078 308.4712  51.6184 15.08778224 22128,6918.069,95.441,540.68,539.188,0.0
53260.0,STARLINK-4136,PAYLOAD,2022-12-11 18:36:04,15.08837882,0.0001514,53.2158,108.9151,60.15600000000001,299.9583,0.00012912,1.767e-05,0.0,0 STARLINK-4136,1 53260U 22086U   22345.77505123  .00001767  00000-0  12912-3 0  9999,2 53260  53.2158 108.9151 0001514  60.1560 299.9583 15.08837882 22151,6917.887,95.438,540.799,538.7040000000002,0.0
53260.0,STARLINK-4136,PAYLOAD,2022-12-11 20:11:27,15.08840176,0.0001486,53.2157,108.6179,62.0249,298.0894,0.00013673,1.889e-05,0.0,0 STARLINK-4136,1 53260U 22086U   22345.84128952  .00001889  00000-0  13673-3 0  9998,2 53260  53.2157 108.6179 0001486  62.0249 298.0894 15.08840176 22346,6917.88,95.438,540.773,538.717,0.0
53260.0,STARLINK-4136,PAYLOAD,2022-12-12 12:05:18,15.08845192,0.0001505,53.2165,105.6435,64.2833,295.8315,-6.594700000000001e-06,-3.93e-06,0.0,0 STARLINK-4136,1 53260U 22086U   22346.50368956 -.00000393  00000-0 -65947-5 0  9996,2 53260  53.2165 105.6435 0001505  64.2833 295.8315 15.08845192 22449,6917.865,95.437,540.771,538.688,0.0
53260.0,STARLINK-4136,PAYLOAD,2022-12-13 00:48:24,15.08832423,0.00015,53.2163,103.265,67.1238,292.9912,4.8565e-05,4.85e-06,0.0,0 STARLINK-4136,1 53260U 22086U   22347.03361649  .00000485  00000-0  48565-4 0  9993,2 53260  53.2163 103.2650 0001500  67.1238 292.9912 15.08832423 22349,6917.904,95.438,540.806,538.731,0.0
53260.0,STARLINK-4136,PAYLOAD,2022-12-13 08:45:20,15.08832083,0.0001551999999999,53.2164,101.778,60.9961,299.1186,7.46e-05,8.99e-06,0.0,0 STARLINK-4136,1 53260U 22086U   22347.36481639  .00000899  00000-0  74600-4 0  9999,2 53260  53.2164 101.7780 0001552  60.9961 299.1186 15.08832083 22577,6917.905,95.438,540.8430000000002,538.696,0.0
53260.0,STARLINK-4136,PAYLOAD,2022-12-13 16:42:15,15.08833947,0.000155,53.2164,100.2913,59.569,300.5455,2.1599e-05,5.6e-07,0.0,0 STARLINK-4136,1 53260U 22086U   22347.69601791  .00000056  00000-0  21599-4 0  9992,2 53260  53.2164 100.2913 0001550  59.5690 300.5455 15.08833947 22622,6917.899,95.438,540.836,538.692,0.0
53260.0,STARLINK-4136,PAYLOAD,2022-12-14 00:39:10,15.08845632,0.000157,53.2164,98.8046,54.4365,305.6773,7.5865e-05,9.2e-06,0.0,0 STARLINK-4136,1 53260U 22086U   22348.02720909  .00000920  00000-0  75865-4 0  9998,2 53260  53.2164  98.8046 0001570  54.4365 305.6773 15.08845632 22494,6917.863,95.437,540.814,538.6419999999998,0.0
53260.0,STARLINK-4136,PAYLOAD,2022-12-14 19:43:49,15.08830721,0.0001367,53.2149,95.2348,65.5422,294.5712,-1.3509e-05,-5.03e-06,0.0,0 STARLINK-4136,1 53260U 22086U   22348.82210132 -.00000503  00000-0 -13509-4 0  9994,2 53260  53.2149  95.2348 0001367  65.5422 294.5712 15.08830721 22610,6917.909000000002,95.438,540.719,538.828,0.0
53260.0,STARLINK-4136,PAYLOAD,2022-12-15 13:13:03,15.08837773,0.0001585,53.2166,91.9646,51.4161,308.6973,7.7449e-05,9.45e-06,0.0,0 STARLINK-4136,1 53260U 22086U   22349.55073787  .00000945  00000-0  77449-4 0  9999,2 53260  53.2166  91.9646 0001585  51.4161 308.6973 15.08837773 22721,6917.887,95.438,540.849,538.656,0.0
53260.0,STARLINK-4136,PAYLOAD,2022-12-15 19:34:35,15.08843496,0.0001624,53.2167,90.7752,50.4612,309.6524,0.00011631,1.564e-05,0.0,0 STARLINK-4136,1 53260U 22086U   22349.81569353  .00001564  00000-0  11631-3 0  9995,2 53260  53.2167  90.7752 0001624  50.4612 309.6524 15.08843496 22947,6917.87,95.437,540.8580000000002,538.611,0.0
53260.0,STARLINK-4136,PAYLOAD,2022-12-16 00:20:44,15.08853188,0.0001733,53.2167,89.8833,54.6979,305.4174,0.00012579,1.715e-05,0.0,0 STARLINK-4136,1 53260U 22086U   22350.01440699  .00001715  00000-0  12579-3 0  9990,2 53260  53.2167  89.8833 0001733  54.6979 305.4174 15.08853188 22796,6917.84,95.437,540.904,538.506,0.0
